{
  "40258": [
    {
      "epoch": "2026-03-07T18:13:27.793335+00:00",
      "mean_motion": 0.99116008,
      "eccentricity": 0.0002655,
      "inclination": 1.6297,
      "raan": 84.01860000000002,
      "arg_perigee": 216.8311,
      "mean_anomaly": 323.5852,
      "bstar": 0.0,
      "tle_line1": "1 40258U 14058A   26066.75934946 -.00000114  00000-0  00000+0 0  9990",
      "tle_line2": "2 40258   1.6297  84.0186 0002655 216.8311 323.5852  0.99116008 39962",
      "norad_id": 40258,
      "object_name": "LUCH (OLYMP)"
    },
    {
      "epoch": "2026-03-08T02:46:28.945892+00:00",
      "mean_motion": 0.9911617499999998,
      "eccentricity": 0.0002623,
      "inclination": 1.6305,
      "raan": 84.0137,
      "arg_perigee": 217.2245,
      "mean_anomaly": 90.3201,
      "bstar": 0.0,
      "tle_line1": "1 40258U 14058A   26067.11561280 -.00000123  00000-0  00000+0 0  9998",
      "tle_line2": "2 40258   1.6305  84.0137 0002623 217.2245  90.3201  0.99116175 39966",
      "norad_id": 40258,
      "object_name": "LUCH (OLYMP)"
    },
    {
      "epoch": "2026-03-08T11:19:32.244659+00:00",
      "mean_motion": 0.99116287,
      "eccentricity": 0.0002598,
      "inclination": 1.6314,
      "raan": 84.0084,
      "arg_perigee": 217.55,
      "mean_anomaly": 217.1327,
      "bstar": 0.0,
      "tle_line1": "1 40258U 14058A   26067.47190098 -.00000132  00000-0  00000+0 0  9992",
      "tle_line2": "2 40258   1.6314  84.0084 0002598 217.5500 217.1327  0.99116287 39978",
      "norad_id": 40258,
      "object_name": "LUCH (OLYMP)"
    },
    {
      "epoch": "2026-03-09T11:15:56.758728+00:00",
      "mean_motion": 0.99116637,
      "eccentricity": 0.0002538,
      "inclination": 1.6338,
      "raan": 83.9928,
      "arg_perigee": 218.3817,
      "mean_anomaly": 212.253,
      "bstar": 0.0,
      "tle_line1": "1 40258U 14058A   26068.46940693 -.00000159  00000-0  00000+0 0  9995",
      "tle_line2": "2 40258   1.6338  83.9928 0002538 218.3817 212.2530  0.99116637 39985",
      "norad_id": 40258,
      "object_name": "LUCH (OLYMP)"
    },
    {
      "epoch": "2026-03-09T19:48:55.454102+00:00",
      "mean_motion": 0.99116743,
      "eccentricity": 0.0002528,
      "inclination": 1.6346,
      "raan": 83.9864,
      "arg_perigee": 218.6974,
      "mean_anomaly": 339.0581,
      "bstar": 0.0,
      "tle_line1": "1 40258U 14058A   26068.82564183 -.00000168  00000-0  00000+0 0  9991",
      "tle_line2": "2 40258   1.6346  83.9864 0002528 218.6974 339.0581  0.99116743 39981",
      "norad_id": 40258,
      "object_name": "LUCH (OLYMP)"
    },
    {
      "epoch": "2026-03-10T04:11:38.674744+00:00",
      "mean_motion": 0.99116845,
      "eccentricity": 0.0002505,
      "inclination": 1.6355,
      "raan": 83.9814,
      "arg_perigee": 218.9978,
      "mean_anomaly": 103.335,
      "bstar": 0.0,
      "tle_line1": "1 40258U 14058A   26069.17475318 -.00000177  00000-0  00000+0 0  9991",
      "tle_line2": "2 40258   1.6355  83.9814 0002505 218.9978 103.3350  0.99116845 39987",
      "norad_id": 40258,
      "object_name": "LUCH (OLYMP)"
    },
    {
      "epoch": "2026-03-10T11:12:26.604584+00:00",
      "mean_motion": 0.99116899,
      "eccentricity": 0.0002486,
      "inclination": 1.6362,
      "raan": 83.9772,
      "arg_perigee": 219.0742,
      "mean_anomaly": 207.5355,
      "bstar": 0.0,
      "tle_line1": "1 40258U 14058A   26069.46697459 -.00000185  00000-0  00000+0 0  9994",
      "tle_line2": "2 40258   1.6362  83.9772 0002486 219.0742 207.5355  0.99116899 39999",
      "norad_id": 40258,
      "object_name": "LUCH (OLYMP)"
    },
    {
      "epoch": "2026-03-10T19:45:25.121948+00:00",
      "mean_motion": 0.9911697700000001,
      "eccentricity": 0.000248,
      "inclination": 1.637,
      "raan": 83.9711,
      "arg_perigee": 219.2888,
      "mean_anomaly": 334.441,
      "bstar": 0.0,
      "tle_line1": "1 40258U 14058A   26069.82320743 -.00000194  00000-0  00000+0 0  9993",
      "tle_line2": "2 40258   1.6370  83.9711 0002480 219.2888 334.4410  0.99116977 39997",
      "norad_id": 40258,
      "object_name": "LUCH (OLYMP)"
    },
    {
      "epoch": "2026-03-11T04:23:38.621735+00:00",
      "mean_motion": 0.9911704399999999,
      "eccentricity": 0.0002462,
      "inclination": 1.6379,
      "raan": 83.9659,
      "arg_perigee": 219.5927,
      "mean_anomaly": 102.557,
      "bstar": 0.0,
      "tle_line1": "1 40258U 14058A   26070.18308590 -.00000202  00000-0  00000+0 0  9990",
      "tle_line2": "2 40258   1.6379  83.9659 0002462 219.5927 102.5570  0.99117044 39991",
      "norad_id": 40258,
      "object_name": "LUCH (OLYMP)"
    },
    {
      "epoch": "2026-03-11T06:01:05.928375+00:00",
      "mean_motion": 0.9911705,
      "eccentricity": 0.0002456,
      "inclination": 1.6381,
      "raan": 83.9646,
      "arg_perigee": 219.60550000000003,
      "mean_anomaly": 126.69450000000002,
      "bstar": 0.0,
      "tle_line1": "1 40258U 14058A   26070.25076306 -.00000204  00000-0  00000+0 0  9997",
      "tle_line2": "2 40258   1.6381  83.9646 0002456 219.6055 126.6945  0.99117050 39996",
      "norad_id": 40258,
      "object_name": "LUCH (OLYMP)"
    },
    {
      "epoch": "2026-03-11T13:33:38.748413+00:00",
      "mean_motion": 0.99117074,
      "eccentricity": 0.0002444,
      "inclination": 1.6388000000000003,
      "raan": 83.9606,
      "arg_perigee": 219.5259,
      "mean_anomaly": 238.9182,
      "bstar": 0.0,
      "tle_line1": "1 40258U 14058A   26070.56503181 -.00000212  00000-0  00000+0 0  9996",
      "tle_line2": "2 40258   1.6388  83.9606 0002444 219.5259 238.9182  0.99117074 40001",
      "norad_id": 40258,
      "object_name": "LUCH (OLYMP)"
    },
    {
      "epoch": "2026-03-12T02:32:17.446289+00:00",
      "mean_motion": 0.99117132,
      "eccentricity": 0.0002431,
      "inclination": 1.6401,
      "raan": 83.9526,
      "arg_perigee": 219.9343,
      "mean_anomaly": 71.4642,
      "bstar": 0.0,
      "tle_line1": "1 40258U 14058A   26071.10575748 -.00000224  00000-0  00000+0 0  9998",
      "tle_line2": "2 40258   1.6401  83.9526 0002431 219.9343  71.4642  0.99117132 40008",
      "norad_id": 40258,
      "object_name": "LUCH (OLYMP)"
    },
    {
      "epoch": "2026-03-12T14:30:30.216064+00:00",
      "mean_motion": 0.99117136,
      "eccentricity": 0.000241,
      "inclination": 1.6413,
      "raan": 83.9452,
      "arg_perigee": 219.83,
      "mean_anomaly": 249.5474,
      "bstar": 0.0,
      "tle_line1": "1 40258U 14058A   26071.60451639 -.00000235  00000-0  00000+0 0  9997",
      "tle_line2": "2 40258   1.6413  83.9452 0002410 219.8300 249.5474  0.99117136 40014",
      "norad_id": 40258,
      "object_name": "LUCH (OLYMP)"
    },
    {
      "epoch": "2026-03-12T17:55:40.545135+00:00",
      "mean_motion": 0.99117148,
      "eccentricity": 0.0002408,
      "inclination": 1.6417,
      "raan": 83.9426,
      "arg_perigee": 219.8442,
      "mean_anomaly": 300.37700000000007,
      "bstar": 0.0,
      "tle_line1": "1 40258U 14058A   26071.74699705 -.00000238  00000-0  00000+0 0  9993",
      "tle_line2": "2 40258   1.6417  83.9426 0002408 219.8442 300.3770  0.99117148 40011",
      "norad_id": 40258,
      "object_name": "LUCH (OLYMP)"
    },
    {
      "epoch": "2026-03-12T19:38:16.426758+00:00",
      "mean_motion": 0.99117152,
      "eccentricity": 0.0002408,
      "inclination": 1.6419,
      "raan": 83.94140000000002,
      "arg_perigee": 219.8884,
      "mean_anomaly": 325.7576,
      "bstar": 0.0,
      "tle_line1": "1 40258U 14058A   26071.81824568 -.00000239  00000-0  00000+0 0  9999",
      "tle_line2": "2 40258   1.6419  83.9414 0002408 219.8884 325.7576  0.99117152 40010",
      "norad_id": 40258,
      "object_name": "LUCH (OLYMP)"
    },
    {
      "epoch": "2026-03-16T19:24:09.591827+00:00",
      "mean_motion": 0.99116279,
      "eccentricity": 0.0002399,
      "inclination": 1.6519,
      "raan": 83.8792,
      "arg_perigee": 218.8971,
      "mean_anomaly": 310.6241,
      "bstar": 0.0,
      "tle_line1": "1 40258U 14058A   26075.80844435 -.00000289  00000-0  00000+0 0  9992",
      "tle_line2": "2 40258   1.6519  83.8792 0002399 218.8971 310.6241  0.99116279 40059",
      "norad_id": 40258,
      "object_name": "LUCH (OLYMP)"
    },
    {
      "epoch": "2026-03-16T22:49:19.918274+00:00",
      "mean_motion": 0.9911622299999999,
      "eccentricity": 0.0002401,
      "inclination": 1.6522,
      "raan": 83.8764,
      "arg_perigee": 218.8227,
      "mean_anomaly": 1.542,
      "bstar": 0.0,
      "tle_line1": "1 40258U 14058A   26075.95092498 -.00000289  00000-0  00000+0 0  9992",
      "tle_line2": "2 40258   1.6522  83.8764 0002401 218.8227   1.5420  0.99116223 40054",
      "norad_id": 40258,
      "object_name": "LUCH (OLYMP)"
    },
    {
      "epoch": "2026-03-17T20:16:38.554779+00:00",
      "mean_motion": 0.99115844,
      "eccentricity": 0.0002413,
      "inclination": 1.6546,
      "raan": 83.8609,
      "arg_perigee": 218.5669,
      "mean_anomaly": 320.8027,
      "bstar": 0.0,
      "tle_line1": "1 40258U 14058A   26076.84489068 -.00000290  00000-0  00000+0 0  9996",
      "tle_line2": "2 40258   1.6546  83.8609 0002413 218.5669 320.8027  0.99115844 40067",
      "norad_id": 40258,
      "object_name": "LUCH (OLYMP)"
    },
    {
      "epoch": "2026-03-18T12:26:37.212860+00:00",
      "mean_motion": 0.9911553500000001,
      "eccentricity": 0.0002422,
      "inclination": 1.6564,
      "raan": 83.848,
      "arg_perigee": 218.5885,
      "mean_anomaly": 201.1488,
      "bstar": 0.0,
      "tle_line1": "1 40258U 14058A   26077.51848626 -.00000288  00000-0  00000+0 0  9997",
      "tle_line2": "2 40258   1.6564  83.8480 0002422 218.5885 201.1488  0.99115535 40074",
      "norad_id": 40258,
      "object_name": "LUCH (OLYMP)"
    }
  ],
  "44878": []
}